NORAD_CAT_ID,OBJECT_NAME,OBJECT_TYPE,EPOCH,MEAN_MOTION,ECCENTRICITY,INCLINATION,RA_OF_ASC_NODE,ARG_OF_PERICENTER,MEAN_ANOMALY,BSTAR,MEAN_MOTION_DOT,MEAN_MOTION_DDOT,TLE_LINE0,TLE_LINE1,TLE_LINE2,SEMIMAJOR_AXIS,PERIOD,APOGEE,PERIGEE,DECAYED
52643.0,STARLINK-3963,PAYLOAD,2022-05-29 20:00:01,15.73126583,0.0001424,53.2139,5.3544,101.2645,110.7425,0.00025773,0.00035591,0.0,0 STARLINK-3963,1 52643U 22052AX  22149.83334491  .00035591  00000-0  25773-3 0  9994,2 52643  53.2139   5.3544 0001424 101.2645 110.7425 15.73126583  2740,6728.104,91.537,350.92800000000005,349.011,0.0
52643.0,STARLINK-3963,PAYLOAD,2022-05-29 20:37:39,15.73164089,0.0001217,53.2141,5.2248,101.9477,258.1679,7.6712e-05,0.00010143,0.0,0 STARLINK-3963,1 52643U 22052AX  22149.85948264  .00010143  00000-0  76712-4 0  9991,2 52643  53.2141   5.2248 0001217 101.9477 258.1679 15.73164089  2373,6727.998000000001,91.535,350.681,349.0440000000001,0.0
52643.0,STARLINK-3963,PAYLOAD,2022-05-30 14:00:01,15.73193232,0.0001385999999999,53.2136,1.6414,112.7623,29.2133,0.00052223,0.00073292,0.0,0 STARLINK-3963,1 52643U 22052AX  22150.58334491  .00073292  00000-0  52223-3 0  9998,2 52643  53.2136   1.6414 0001386 112.7623  29.2133 15.73193232  1308,6727.9140000000025,91.534,350.712,348.847,0.0
52643.0,STARLINK-3963,PAYLOAD,2022-05-30 20:00:01,15.73258257,0.0001207,53.2133,0.4059,104.8106,13.8668,-0.00035975,-0.00050929,0.0,0 STARLINK-3963,1 52643U 22052AX  22150.83334491 -.00050929  00000-0 -35975-3 0  9995,2 52643  53.2133   0.4059 0001207 104.8106  13.8668 15.73258257  2905,6727.729,91.53,350.406,348.782,0.0
52643.0,STARLINK-3963,PAYLOAD,2022-05-30 22:00:00,15.73255993,0.0001161,53.2135,359.9939,102.8683,128.0547,-0.00040119,-0.0005667999999999,0.0,0 STARLINK-3963,1 52643U 22052AX  22150.91667824 -.00056680  00000-0 -40119-3 0  9999,2 52643  53.2135 359.9939 0001161 102.8683 128.0547 15.73255993  1305,6727.736,91.53,350.38199999999995,348.819,0.0
52643.0,STARLINK-3963,PAYLOAD,2022-05-31 06:00:02,15.73219728,9.79e-05,53.2135,358.3429,108.5016,211.4385,-5.5907e-05,-8.464e-05,0.0,0 STARLINK-3963,1 52643U 22052AX  22151.25002315 -.00008464  00000-0 -55907-4 0  9994,2 52643  53.2135 358.3429 0000979 108.5016 211.4385 15.73219728  1304,6727.839,91.532,350.36300000000006,349.045,0.0
52643.0,STARLINK-3963,PAYLOAD,2022-05-31 19:53:33,15.73221703,0.0001401,53.2131,355.477,106.3649,253.7525,3.3045e-05,4.024e-05,0.0,0 STARLINK-3963,1 52643U 22052AX  22151.82885892  .00004024  00000-0  33045-4 0  9991,2 52643  53.2131 355.4770 0001401 106.3649 253.7525 15.73221703  3051,6727.833000000001,91.532,350.641,348.756,0.0
52643.0,STARLINK-3963,PAYLOAD,2022-05-31 22:00:00,15.73196165,0.0001154,53.2139,355.0446,97.0506,40.7235,0.00043749,0.00061217,0.0,0 STARLINK-3963,1 52643U 22052AX  22151.91667824  .00061217  00000-0  43749-3 0  9992,2 52643  53.2139 355.0446 0001154  97.0506  40.7235 15.73196165  1309,6727.906,91.533,350.548,348.995,0.0
52643.0,STARLINK-3963,PAYLOAD,2022-06-01 20:00:01,15.73214958,0.0001163,53.2134,350.5076,100.0674,192.3839,-0.00027265,-0.00038732,0.0,0 STARLINK-3963,1 52643U 22052AX  22152.83334491 -.00038732  00000-0 -27265-3 0  9998,2 52643  53.2134 350.5076 0001163 100.0674 192.3839 15.73214958  3211,6727.853,91.532,350.5,348.935,0.0
52643.0,STARLINK-3963,PAYLOAD,2022-06-02 19:09:26,15.73192085,6.809999999999999e-05,53.2155,345.7316,102.2378,257.8719,-1.9307e-05,-3.326e-05,0.0,0 STARLINK-3963,1 52643U 22052AX  22153.79822893 -.00003326  00000-0 -19307-4 0  9992,2 52643  53.2155 345.7316 0000681 102.2378 257.8719 15.73192085  3362,6727.918000000002,91.534,350.241,349.325,0.0
52643.0,STARLINK-3963,PAYLOAD,2022-06-02 23:43:54,15.73172696,0.0001198,53.2154,344.788,78.0624,282.0531,-5.2795e-05,-8.013e-05,0.0,0 STARLINK-3963,1 52643U 22052AX  22153.98882405 -.00008013  00000-0 -52795-4 0  9994,2 52643  53.2154 344.7880 0001198  78.0624 282.0531 15.73172696  3395,6727.973000000001,91.535,350.644,349.032,0.0
52643.0,STARLINK-3963,PAYLOAD,2022-06-03 05:49:48,15.73201379,5.05e-05,53.2155,343.53,128.5788,231.5277,1.5497e-05,1.557e-05,0.0,0 STARLINK-3963,1 52643U 22052AX  22154.24292485  .00001557  00000-0  15497-4 0  9999,2 52643  53.2155 343.5300 0000505 128.5788 231.5277 15.73201379  3435,6727.891,91.533,350.096,349.416,0.0
52643.0,STARLINK-3963,PAYLOAD,2022-06-03 13:27:12,15.73214083,8.97e-05,53.2152,341.9589,99.158,260.9541,4.1885e-05,5.266e-05,0.0,0 STARLINK-3963,1 52643U 22052AX  22154.56056274  .00005266  00000-0  41885-4 0  9999,2 52643  53.2152 341.9589 0000897  99.1580 260.9541 15.73214083  3111,6727.855,91.532,350.324,349.117,0.0
52643.0,STARLINK-3963,PAYLOAD,2022-06-03 18:01:38,15.73221447,0.0002284,53.2153,341.0157,125.1878,234.9356,5.7803e-05,7.506e-05,0.0,0 STARLINK-3963,1 52643U 22052AX  22154.75114357  .00007506  00000-0  57803-4 0  9993,2 52643  53.2153 341.0157 0002284 125.1878 234.9356 15.73221447  3517,6727.834,91.532,351.236,348.162,0.0
52643.0,STARLINK-3963,PAYLOAD,2022-06-03 21:04:36,15.73229694,0.0001206,53.2153,340.3874,79.4006,280.715,8.301100000000001e-05,0.0001106,0.0,0 STARLINK-3963,1 52643U 22052AX  22154.87819738  .00011060  00000-0  83011-4 0  9991,2 52643  53.2153 340.3874 0001206  79.4006 280.7150 15.73229694  3166,6727.811,91.531,350.487,348.86400000000015,0.0
52643.0,STARLINK-3963,PAYLOAD,2022-06-04 00:07:33,15.73245395,7.59e-05,53.2151,339.7575,89.6902,270.4205,0.00011393,0.0001543,0.0,0 STARLINK-3963,1 52643U 22052AX  22155.00524430  .00015430  00000-0  11393-3 0  9997,2 52643  53.2151 339.7575 0000759  89.6902 270.4205 15.73245395  3550,6727.766,91.531,350.141,349.12,0.0
52643.0,STARLINK-3963,PAYLOAD,2022-06-04 12:19:23,15.73234226,5.34e-05,53.2155,337.2425,101.7322,258.3758,9.0659e-05,0.00012141,0.0,0 STARLINK-3963,1 52643U 22052AX  22155.51346588  .00012141  00000-0  90659-4 0  9998,2 52643  53.2155 337.2425 0000534 101.7322 258.3758 15.73234226  3632,6727.7980000000025,91.531,350.022,349.30300000000005,0.0
52643.0,STARLINK-3963,PAYLOAD,2022-06-05 20:00:01,15.73199856,9.88e-05,53.214,330.7128,81.2008,198.479,-0.00015418,-0.000222,0.0,0 STARLINK-3963,1 52643U 22052AX  22156.83334491 -.00022200  00000-0 -15418-3 0  9992,2 52643  53.2140 330.7128 0000988  81.2008 198.4790 15.73199856  3842,6727.896,91.533,350.425,349.096,0.0
52643.0,STARLINK-3963,PAYLOAD,2022-06-05 22:00:00,15.73160203,8.75e-05,53.2139,330.3006,78.9768,312.9458,0.00042283,0.00059038,0.0,0 STARLINK-3963,1 52643U 22052AX  22156.91667824  .00059038  00000-0  42283-3 0  9997,2 52643  53.2139 330.3006 0000875  78.9768 312.9458 15.73160203  1309,6728.009,91.535,350.462,349.285,0.0
52643.0,STARLINK-3963,PAYLOAD,2022-06-06 12:00:02,15.73239864,9.58e-05,53.2144,327.4114,91.9886,5.5979,-0.00043854,-0.00061818,0.0,0 STARLINK-3963,1 52643U 22052AX  22157.50002315 -.00061818  00000-0 -43854-3 0  9997,2 52643  53.2144 327.4114 0000958  91.9886   5.5979 15.73239864  3956,6727.781999999997,91.531,350.291,349.00199999999984,0.0
52643.0,STARLINK-3963,PAYLOAD,2022-06-06 14:00:01,15.73234898,9.75e-05,53.2144,326.9997,87.7361,122.0254,-0.0005105999999999,-0.00071774,0.0,0 STARLINK-3963,1 52643U 22052AX  22157.58334491 -.00071774  00000-0 -51060-3 0  9998,2 52643  53.2144 326.9997 0000975  87.7361 122.0254 15.73234898  1309,6727.795999999999,91.531,350.31699999999995,349.005,0.0
52643.0,STARLINK-3963,PAYLOAD,2022-06-06 20:00:01,15.73173293,0.0001111,53.2143,325.764,73.4498,113.0364,0.00046199,0.00064643,0.0,0 STARLINK-3963,1 52643U 22052AX  22157.83334491  .00064643  00000-0  46199-3 0  9998,2 52643  53.2143 325.7640 0001111  73.4498 113.0364 15.73173293  4009,6727.971,91.535,350.584,349.089,0.0
52643.0,STARLINK-3963,PAYLOAD,2022-06-06 22:00:00,15.73172818,0.0001097,53.2141,325.3518,71.1494,227.5669,0.00061206,0.00086062,0.0,0 STARLINK-3963,1 52643U 22052AX  22157.91667824  .00086062  00000-0  61206-3 0  9991,2 52643  53.2141 325.3518 0001097  71.1494 227.5669 15.73172818  1302,6727.973000000001,91.535,350.576,349.1,0.0
52643.0,STARLINK-3963,PAYLOAD,2022-06-07 04:00:00,15.73260477,0.0001121,53.214,324.113,80.2572,195.1453,-0.0007971,-0.00111304,0.0,0 STARLINK-3963,1 52643U 22052AX  22158.16667824 -.00111304  00000-0 -79710-3 0  9998,2 52643  53.2140 324.1130 0001121  80.2572 195.1453 15.73260477  4059,6727.723000000001,91.53,350.342,348.834,0.0
52643.0,STARLINK-3963,PAYLOAD,2022-06-07 12:00:00,15.73181378,0.0001288,53.214,322.463,85.6527,278.7026,0.00025854,0.0003579,0.0,0 STARLINK-3963,1 52643U 22052AX  22158.50001157  .00035790  00000-0  25854-3 0  9999,2 52643  53.2140 322.4630 0001288  85.6527 278.7026 15.73181378  4100,6727.948,91.534,350.68,348.94699999999995,0.0
52643.0,STARLINK-3963,PAYLOAD,2022-06-07 14:00:01,15.73197637,0.0001276,53.2139,322.0512,82.1981,34.3819,7.8753e-05,0.00010445,0.0,0 STARLINK-3963,1 52643U 22052AX  22158.58334491  .00010445  00000-0  78753-4 0  9994,2 52643  53.2139 322.0512 0001276  82.1981  34.3819 15.73197637  1306,6727.901999999999,91.533,350.625,348.908,0.0
52643.0,STARLINK-3963,PAYLOAD,2022-06-07 22:00:00,15.73219981,0.0001152,53.2134,320.4032,69.1794,136.3509,0.00035574,0.00049644,0.0,0 STARLINK-3963,1 52643U 22052AX  22158.91667824  .00049644  00000-0  35574-3 0  9996,2 52643  53.2134 320.4032 0001152  69.1794 136.3509 15.73219981  1306,6727.8380000000025,91.532,350.478,348.92800000000005,0.0
52643.0,STARLINK-3963,PAYLOAD,2022-06-08 12:00:00,15.73239435,9.46e-05,53.2138,317.5141,78.1452,193.0498,-1.2790999999999997e-05,-2.417e-05,0.0,0 STARLINK-3963,1 52643U 22052AX  22159.50001157 -.00002417  00000-0 -12791-4 0  9999,2 52643  53.2138 317.5141 0000946  78.1452 193.0498 15.73239435  4260,6727.783,91.531,350.284,349.011,0.0
52643.0,STARLINK-3963,PAYLOAD,2022-06-08 14:00:01,15.73267037,9.97e-05,53.2138,317.1023,71.4848,311.9465,-0.00049613,-0.00069869,0.0,0 STARLINK-3963,1 52643U 22052AX  22159.58334491 -.00069869  00000-0 -49613-3 0  9993,2 52643  53.2138 317.1023 0000997  71.4848 311.9465 15.73267037  1302,6727.704000000002,91.529,350.24,348.898,0.0
